{
  "type": "FeatureCollection",
  "features": [
    {
      "type": "Feature",
      "properties": {
        "norad_id": 27954,
        "name": "GALAXY 13 (HORIZONS-1)",
        "group": "intelsat",
        "lat": -0.23754558138284618,
        "lon": 69.78326455072772,
        "alt_km": 35794.41205605513,
        "timestamp": "2025-12-05T09:41:18.789260+00:00",
        "meta_object_name": "GALAXY 13 (HORIZONS-1)",
        "meta_object_id": "2003-044A",
        "meta_epoch": "2025-12-04T13:11:38.704992",
        "meta_mean_motion": 1.00273025,
        "meta_eccentricity": 0.0002064,
        "meta_inclination": 0.9144,
        "meta_ra_of_asc_node": 86.575,
        "meta_arg_of_pericenter": 163.3014,
        "meta_mean_anomaly": 231.6575,
        "meta_ephemeris_type": 0,
        "meta_classification_type": "U",
        "meta_norad_cat_id": 27954,
        "meta_element_set_no": 999,
        "meta_rev_at_epoch": 4462,
        "meta_bstar": 0,
        "meta_mean_motion_dot": 1.47e-06,
        "meta_mean_motion_ddot": 0,
        "tle_line1": "1 27954U 03044A   25338.54975353  .00000147  00000+0  00000+0 0  9990",
        "tle_line2": "2 27954   0.9144  86.5750 0002064 163.3014 231.6575  1.00273025 44623"
      },
      "geometry": {
        "type": "Point",
        "coordinates": [
          69.78326455072772,
          -0.23754558138284618
        ]
      }
    },
    {
      "type": "Feature",
      "properties": {
        "norad_id": 28358,
        "name": "INTELSAT 10-02",
        "group": "intelsat",
        "lat": -0.004170661606281036,
        "lon": -141.23363344635968,
        "alt_km": 35784.060333352296,
        "timestamp": "2025-12-05T09:41:18.789272+00:00",
        "meta_object_name": "INTELSAT 10-02",
        "meta_object_id": "2004-022A",
        "meta_epoch": "2025-12-04T13:43:19.636320",
        "meta_mean_motion": 1.00270533,
        "meta_eccentricity": 0.0001106,
        "meta_inclination": 0.0398,
        "meta_ra_of_asc_node": 80.5364,
        "meta_arg_of_pericenter": 198.4506,
        "meta_mean_anomaly": 359.4943,
        "meta_ephemeris_type": 0,
        "meta_classification_type": "U",
        "meta_norad_cat_id": 28358,
        "meta_element_set_no": 999,
        "meta_rev_at_epoch": 7860,
        "meta_bstar": 0,
        "meta_mean_motion_dot": 4e-08,
        "meta_mean_motion_ddot": 0,
        "tle_line1": "1 28358U 04022A   25338.57175505  .00000004  00000+0  00000+0 0  9992",
        "tle_line2": "2 28358   0.0398  80.5364 0001106 198.4506 359.4943  1.00270533 78604"
      },
      "geometry": {
        "type": "Point",
        "coordinates": [
          -141.23363344635968,
          -0.004170661606281036
        ]
      }
    },
    {
      "type": "Feature",
      "properties": {
        "norad_id": 28626,
        "name": "XM-3 (RHYTHM)",
        "group": "intelsat",
        "lat": -0.12622049459246487,
        "lon": 8.900693153275022,
        "alt_km": 36155.661064161126,
        "timestamp": "2025-12-05T09:41:18.789285+00:00",
        "meta_object_name": "XM-3 (RHYTHM)",
        "meta_object_id": "2005-008A",
        "meta_epoch": "2025-12-04T12:44:32.764992",
        "meta_mean_motion": 0.98954878,
        "meta_eccentricity": 0.0001002,
        "meta_inclination": 0.1521,
        "meta_ra_of_asc_node": 80.9228,
        "meta_arg_of_pericenter": 260.4132,
        "meta_mean_anomaly": 76.6625,
        "meta_ephemeris_type": 0,
        "meta_classification_type": "U",
        "meta_norad_cat_id": 28626,
        "meta_element_set_no": 999,
        "meta_rev_at_epoch": 4066,
        "meta_bstar": 0,
        "meta_mean_motion_dot": -2.56e-06,
        "meta_mean_motion_ddot": 0,
        "tle_line1": "1 28626U 05008A   25338.53093478 -.00000256  00000+0  00000+0 0  9999",
        "tle_line2": "2 28626   0.1521  80.9228 0001002 260.4132  76.6625  0.98954878 40661"
      },
      "geometry": {
        "type": "Point",
        "coordinates": [
          8.900693153275022,
          -0.12622049459246487
        ]
      }
    },
    {
      "type": "Feature",
      "properties": {
        "norad_id": 28659,
        "name": "DIRECTV 8",
        "group": "intelsat",
        "lat": 0.029909869189525744,
        "lon": 100.70849140098103,
        "alt_km": 35798.44022899278,
        "timestamp": "2025-12-05T09:41:18.789297+00:00",
        "meta_object_name": "DIRECTV 8",
        "meta_object_id": "2005-019A",
        "meta_epoch": "2025-12-04T09:44:09.105216",
        "meta_mean_motion": 1.00271046,
        "meta_eccentricity": 0.0003266,
        "meta_inclination": 0.0176,
        "meta_ra_of_asc_node": 322.8972,
        "meta_arg_of_pericenter": 289.5965,
        "meta_mean_anomaly": 207.9778,
        "meta_ephemeris_type": 0,
        "meta_classification_type": "U",
        "meta_norad_cat_id": 28659,
        "meta_element_set_no": 999,
        "meta_rev_at_epoch": 7512,
        "meta_bstar": 0,
        "meta_mean_motion_dot": 1.6e-07,
        "meta_mean_motion_ddot": 0,
        "tle_line1": "1 28659U 05019A   25338.40566094  .00000016  00000+0  00000+0 0  9995",
        "tle_line2": "2 28659   0.0176 322.8972 0003266 289.5965 207.9778  1.00271046 75126"
      },
      "geometry": {
        "type": "Point",
        "coordinates": [
          100.70849140098103,
          0.029909869189525744
        ]
      }
    },
    {
      "type": "Feature",
      "properties": {
        "norad_id": 28702,
        "name": "GALAXY 28 (G-28)",
        "group": "intelsat",
        "lat": 2.14560521917916,
        "lon": 131.0254284541706,
        "alt_km": 35791.66042437381,
        "timestamp": "2025-12-05T09:41:18.789310+00:00",
        "meta_object_name": "GALAXY 28 (G-28)",
        "meta_object_id": "2005-022A",
        "meta_epoch": "2025-12-04T13:18:14.537952",
        "meta_mean_motion": 1.00272119,
        "meta_eccentricity": 0.0002636,
        "meta_inclination": 2.7977,
        "meta_ra_of_asc_node": 81.3766,
        "meta_arg_of_pericenter": 171.5466,
        "meta_mean_anomaly": 291.5686,
        "meta_ephemeris_type": 0,
        "meta_classification_type": "U",
        "meta_norad_cat_id": 28702,
        "meta_element_set_no": 999,
        "meta_rev_at_epoch": 5002,
        "meta_bstar": 0,
        "meta_mean_motion_dot": -1.74e-06,
        "meta_mean_motion_ddot": 0,
        "tle_line1": "1 28702U 05022A   25338.55433493 -.00000174  00000+0  00000+0 0  9996",
        "tle_line2": "2 28702   2.7977  81.3766 0002636 171.5466 291.5686  1.00272119 50028"
      },
      "geometry": {
        "type": "Point",
        "coordinates": [
          131.0254284541706,
          2.14560521917916
        ]
      }
    },
    {
      "type": "Feature",
      "properties": {
        "norad_id": 29236,
        "name": "GALAXY 16 (G-16)",
        "group": "intelsat",
        "lat": -0.00014926155705541547,
        "lon": 120.74035438354184,
        "alt_km": 35795.205319870605,
        "timestamp": "2025-12-05T09:41:18.789322+00:00",
        "meta_object_name": "GALAXY 16 (G-16)",
        "meta_object_id": "2006-023A",
        "meta_epoch": "2025-12-04T09:49:53.556096",
        "meta_mean_motion": 1.00271171,
        "meta_eccentricity": 0.0002953,
        "meta_inclination": 0.0259,
        "meta_ra_of_asc_node": 211.8761,
        "meta_arg_of_pericenter": 44.3815,
        "meta_mean_anomaly": 225.6909,
        "meta_ephemeris_type": 0,
        "meta_classification_type": "U",
        "meta_norad_cat_id": 29236,
        "meta_element_set_no": 999,
        "meta_rev_at_epoch": 7102,
        "meta_bstar": 0,
        "meta_mean_motion_dot": -1.12e-06,
        "meta_mean_motion_ddot": 0,
        "tle_line1": "1 29236U 06023A   25338.40964764 -.00000112  00000+0  00000+0 0  9997",
        "tle_line2": "2 29236   0.0259 211.8761 0002953  44.3815 225.6909  1.00271171 71023"
      },
      "geometry": {
        "type": "Point",
        "coordinates": [
          120.74035438354184,
          -0.00014926155705541547
        ]
      }
    },
    {
      "type": "Feature",
      "properties": {
        "norad_id": 29494,
        "name": "DIRECTV 9S",
        "group": "intelsat",
        "lat": 1.1231990764990563,
        "lon": 118.52572188234872,
        "alt_km": 35796.02961952682,
        "timestamp": "2025-12-05T09:41:18.789334+00:00",
        "meta_object_name": "DIRECTV 9S",
        "meta_object_id": "2006-043A",
        "meta_epoch": "2025-12-04T13:14:44.871936",
        "meta_mean_motion": 1.00270512,
        "meta_eccentricity": 0.0003237,
        "meta_inclination": 1.9176,
        "meta_ra_of_asc_node": 83.2962,
        "meta_arg_of_pericenter": 170.3541,
        "meta_mean_anomaly": 277.4541,
        "meta_ephemeris_type": 0,
        "meta_classification_type": "U",
        "meta_norad_cat_id": 29494,
        "meta_element_set_no": 999,
        "meta_rev_at_epoch": 4943,
        "meta_bstar": 0,
        "meta_mean_motion_dot": -9.9e-07,
        "meta_mean_motion_ddot": 0,
        "tle_line1": "1 29494U 06043A   25338.55190824 -.00000099  00000+0  00000+0 0  9993",
        "tle_line2": "2 29494   1.9176  83.2962 0003237 170.3541 277.4541  1.00270512 49438"
      },
      "geometry": {
        "type": "Point",
        "coordinates": [
          118.52572188234872,
          1.1231990764990563
        ]
      }
    }
  ]
}